COMMENT,ORIGINATOR,NORAD_CAT_ID,OBJECT_NAME,OBJECT_TYPE,CLASSIFICATION_TYPE,INTLDES,EPOCH,EPOCH_MICROSECONDS,MEAN_MOTION,ECCENTRICITY,INCLINATION,RA_OF_ASC_NODE,ARG_OF_PERICENTER,MEAN_ANOMALY,EPHEMERIS_TYPE,ELEMENT_SET_NO,REV_AT_EPOCH,BSTAR,MEAN_MOTION_DOT,MEAN_MOTION_DDOT,FILE,TLE_LINE0,TLE_LINE1,TLE_LINE2,OBJECT_ID,OBJECT_NUMBER,SEMIMAJOR_AXIS,PERIOD,APOGEE,PERIGEE,DECAYED
"GENERATED VIA SPACETRACK.ORG API","18 SPCS","56232","FENGYUN 3G","PAYLOAD","U","23055A","2023-11-02 03:38:00","636864","15.53848382","0.0002443","49.9981","246.1789","348.9405","11.1508","0","999","3109","0.00068436","0.0004469","0","4065885","0 FENGYUN 3G","1 56232U 23055A   23306.15139626  .00044690  00000-0  68436-3 0  9993","2 56232  49.9981 246.1789 0002443 348.9405  11.1508 15.53848382 31099","2023-055A","56232","6783.639","92.673","407.162","403.847","0"
"GENERATED VIA SPACETRACK.ORG API","18 SPCS","56232","FENGYUN 3G","PAYLOAD","U","23055A","2023-11-02 12:53:37","116096","15.53882771","0.0002385","49.9979","244.1873","350.2788","9.8133","0","999","3115","0.00065904","0.00043064","0","4066453","0 FENGYUN 3G","1 56232U 23055A   23306.53723514  .00043064  00000-0  65904-3 0  9991","2 56232  49.9979 244.1873 0002385 350.2788   9.8133 15.53882771 31158","2023-055A","56232","6783.539","92.671","407.022","403.786","0"
"GENERATED VIA SPACETRACK.ORG API","18 SPCS","56232","FENGYUN 3G","PAYLOAD","U","23055A","2023-11-02 12:53:37","116096","15.53882771","0.0002385","49.9979","244.1873","350.2788","9.8133","0","999","3115","0.00065904","0.00043064","0","4066590","0 FENGYUN 3G","1 56232U 23055A   23306.53723514  .00043064  00000-0  65904-3 0  9991","2 56232  49.9979 244.1873 0002385 350.2788   9.8133 15.53882771 31158","2023-055A","56232","6783.539","92.671","407.022","403.786","0"
"GENERATED VIA SPACETRACK.ORG API","18 SPCS","56232","FENGYUN 3G","PAYLOAD","U","23055A","2023-11-02 20:36:36","953856","15.53911715","0.0002344","49.9976","242.5279","351.5054","8.5873","0","999","3120","0.00065216","0.00042653","0","4066954","0 FENGYUN 3G","1 56232U 23055A   23306.85876104  .00042653  00000-0  65216-3 0  9999","2 56232  49.9976 242.5279 0002344 351.5054   8.5873 15.53911715 31206","2023-055A","56232","6783.455","92.669","406.910","403.730","0"
"GENERATED VIA SPACETRACK.ORG API","18 SPCS","56232","FENGYUN 3G","PAYLOAD","U","23055A","2023-11-02 20:36:36","953856","15.53911715","0.0002344","49.9976","242.5279","351.5054","8.5873","0","999","3120","0.00065216","0.00042653","0","4067000","0 FENGYUN 3G","1 56232U 23055A   23306.85876104  .00042653  00000-0  65216-3 0  9999","2 56232  49.9976 242.5279 0002344 351.5054   8.5873 15.53911715 31206","2023-055A","56232","6783.455","92.669","406.910","403.730","0"
"GENERATED VIA SPACETRACK.ORG API","18 SPCS","56232","FENGYUN 3G","PAYLOAD","U","23055A","2023-11-03 04:19:36","267168","15.53942197","0.0002287","49.9976","240.8687","352.3003","7.7929","0","999","3125","0.00069221","0.00045367","0","4067845","0 FENGYUN 3G","1 56232U 23055A   23307.18028087  .00045367  00000-0  69221-3 0  9990","2 56232  49.9976 240.8687 0002287 352.3003   7.7929 15.53942197 31255","2023-055A","56232","6783.366","92.668","406.783","403.680","0"
"GENERATED VIA SPACETRACK.ORG API","18 SPCS","56232","FENGYUN 3G","PAYLOAD","U","23055A","2023-11-03 08:57:23","585760","15.53960082","0.000227","49.9974","239.8727","352.6044","7.489","0","999","3128","0.00067836","0.00044474","0","4068102","0 FENGYUN 3G","1 56232U 23055A   23307.37318965  .00044474  00000-0  67836-3 0  9996","2 56232  49.9974 239.8727 0002270 352.6044   7.4890 15.53960082 31286","2023-055A","56232","6783.314","92.666","406.719","403.639","0"
"GENERATED VIA SPACETRACK.ORG API","18 SPCS","56232","FENGYUN 3G","PAYLOAD","U","23055A","2023-11-03 08:57:23","585760","15.53960082","0.000227","49.9974","239.8727","352.6044","7.489","0","999","3128","0.00067836","0.00044474","0","4068165","0 FENGYUN 3G","1 56232U 23055A   23307.37318965  .00044474  00000-0  67836-3 0  9996","2 56232  49.9974 239.8727 0002270 352.6044   7.4890 15.53960082 31286","2023-055A","56232","6783.314","92.666","406.719","403.639","0"
"GENERATED VIA SPACETRACK.ORG API","18 SPCS","56232","FENGYUN 3G","PAYLOAD","U","23055A","2023-11-03 18:12:57","639744","15.53997797","0.0002218","49.9974","237.881","353.2377","6.856","0","999","3134","0.00071177","0.00046766","0","4068436","0 FENGYUN 3G","1 56232U 23055A   23307.75900046  .00046766  00000-0  71177-3 0  9994","2 56232  49.9974 237.8810 0002218 353.2377   6.8560 15.53997797 31342","2023-055A","56232","6783.204","92.664","406.574","403.565","0"
"GENERATED VIA SPACETRACK.ORG API","18 SPCS","56232","FENGYUN 3G","PAYLOAD","U","23055A","2023-11-03 21:18:08","809344","15.54009275","0.0002188","49.9975","237.2171","353.659","6.435","0","999","3136","0.00069117","0.0004541","0","4068824","0 FENGYUN 3G","1 56232U 23055A   23307.88760196  .00045410  00000-0  69117-3 0  9994","2 56232  49.9975 237.2171 0002188 353.6590   6.4350 15.54009275 31365","2023-055A","56232","6783.171","92.664","406.520","403.552","0"
"GENERATED VIA SPACETRACK.ORG API","18 SPCS","56232","FENGYUN 3G","PAYLOAD","U","23055A","2023-11-04 03:28:30","906624","15.54034984","0.0002216","49.9976","235.8892","354.603","5.4913","0","999","3140","0.00072488","0.00047707","0","4069417","0 FENGYUN 3G","1 56232U 23055A   23308.14480216  .00047707  00000-0  72488-3 0  9992","2 56232  49.9976 235.8892 0002216 354.6030   5.4913 15.54034984 31406","2023-055A","56232","6783.096","92.662","406.464","403.458","0"
"GENERATED VIA SPACETRACK.ORG API","18 SPCS","56232","FENGYUN 3G","PAYLOAD","U","23055A","2023-11-04 09:38:52","638432","15.54058712","0.000219","49.9977","234.5608","355.1076","4.987","0","999","3144","0.00069585","0.00045806","0","4070186","0 FENGYUN 3G","1 56232U 23055A   23308.40199813  .00045806  00000-0  69585-3 0  9993","2 56232  49.9977 234.5608 0002190 355.1076   4.9870 15.54058712 31440","2023-055A","56232","6783.027","92.661","406.378","403.407","0"
"GENERATED VIA SPACETRACK.ORG API","18 SPCS","56232","FENGYUN 3G","PAYLOAD","U","23055A","2023-11-04 12:44:03","376896","15.54071052","0.0002165","49.9977","233.897","355.7179","4.377","0","999","3146","0.00070478","0.00046424","0","4070271","0 FENGYUN 3G","1 56232U 23055A   23308.53059464  .00046424  00000-0  70478-3 0  9994","2 56232  49.9977 233.8970 0002165 355.7179   4.3770 15.54071052 31463","2023-055A","56232","6782.991","92.660","406.325","403.388","0"
"GENERATED VIA SPACETRACK.ORG API","18 SPCS","56232","FENGYUN 3G","PAYLOAD","U","23055A","2023-11-04 18:54:24","550560","15.54102716","0.0002133","49.9977","232.5689","356.5956","3.4996","0","999","3150","0.0008239","0.0005447","0","4070804","0 FENGYUN 3G","1 56232U 23055A   23308.78778415  .00054470  00000-0  82390-3 0  9991","2 56232  49.9977 232.5689 0002133 356.5956   3.4996 15.54102716 31500","2023-055A","56232","6782.899","92.658","406.211","403.317","0"
"GENERATED VIA SPACETRACK.ORG API","18 SPCS","56232","FENGYUN 3G","PAYLOAD","U","23055A","2023-11-04 21:59:35","14272","15.54114468","0.0002139","49.9977","231.9052","357.3409","2.7547","0","999","3152","0.00080983","0.00053548","0","4070865","0 FENGYUN 3G","1 56232U 23055A   23308.91637748  .00053548  00000-0  80983-3 0  9990","2 56232  49.9977 231.9052 0002139 357.3409   2.7547 15.54114468 31528","2023-055A","56232","6782.865","92.657","406.181","403.279","0"
"GENERATED VIA SPACETRACK.ORG API","18 SPCS","56232","FENGYUN 3G","PAYLOAD","U","23055A","2023-11-05 04:09:55","545120","15.54148334","0.0002096","49.9978","230.5769","358.8746","1.2217","0","999","3156","0.00092295","0.0006123","0","4071468","0 FENGYUN 3G","1 56232U 23055A   23309.17355955  .00061230  00000-0  92295-3 0  9992","2 56232  49.9978 230.5769 0002096 358.8746   1.2217 15.54148334 31562","2023-055A","56232","6782.766","92.655","406.053","403.210","0"
"GENERATED VIA SPACETRACK.ORG API","18 SPCS","56232","FENGYUN 3G","PAYLOAD","U","23055A","2023-11-05 08:47:40","665696","15.5417079","0.0002009","49.9977","229.5813","359.9646","0.1321","0","999","3159","0.00089477","0.00059381","0","4072001","0 FENGYUN 3G","1 56232U 23055A   23309.36644289  .00059381  00000-0  89477-3 0  9996","2 56232  49.9977 229.5813 0002009 359.9646   0.1321 15.54170790 31592","2023-055A","56232","6782.701","92.654","405.929","403.203","0"
"GENERATED VIA SPACETRACK.ORG API","18 SPCS","56232","FENGYUN 3G","PAYLOAD","U","23055A","2023-11-05 08:47:40","665696","15.5417079","0.0002009","49.9977","229.5813","359.9646","0.1321","0","999","3159","0.00089477","0.00059381","0","4072138","0 FENGYUN 3G","1 56232U 23055A   23309.36644289  .00059381  00000-0  89477-3 0  9996","2 56232  49.9977 229.5813 0002009 359.9646   0.1321 15.54170790 31592","2023-055A","56232","6782.701","92.654","405.929","403.203","0"
"GENERATED VIA SPACETRACK.ORG API","18 SPCS","56232","FENGYUN 3G","PAYLOAD","U","23055A","2023-11-05 19:35:44","767104","15.54232567","0.0002058","49.9973","227.2578","1.1092","358.988","0","999","3166","0.00075728","0.00050239","0","4072637","0 FENGYUN 3G","1 56232U 23055A   23309.81649036  .00050239  00000-0  75728-3 0  9998","2 56232  49.9973 227.2578 0002058   1.1092 358.9880 15.54232567 31669","2023-055A","56232","6782.521","92.650","405.782","402.991","0"
"GENERATED VIA SPACETRACK.ORG API","18 SPCS","56232","FENGYUN 3G","PAYLOAD","U","23055A","2023-11-05 21:08:19","553568","15.54253251","0.000206","49.9972","226.9258","1.6133","358.4841","0","999","3167","0.0013514","0.00090556","0","4072675","0 FENGYUN 3G","1 56232U 23055A   23309.88078187  .00090556  00000-0  13514-2 0  9998","2 56232  49.9972 226.9258 0002060   1.6133 358.4841 15.54253251 31679","2023-055A","56232","6782.461","92.649","405.723","402.929","0"
